0 OPS 9322 (IDSCS 9)
1 02649U 67003B   13285.91059064 -.00000084  00000-0  10000-3 0  9391
2 02649 000.8772 002.8855 0038690 070.2832 287.2700 01.08281574 89293
0 OPS 9322 (IDSCS 9)
1 02649U 67003B   13289.60456051 -.00000112  00000-0  10000-3 0  9402
2 02649 000.8764 002.7673 0038386 070.9166 286.7536 01.08281942 89335
0 OPS 9322 (IDSCS 9)
1 02649U 67003B   13290.53325785  .00000000  00000-0  10000-3 0  9411
2 02649 000.8786 002.9292 0038205 071.0031 288.5304 01.08278658 89345
0 OPS 9322 (IDSCS 9)
1 02649U 67003B   13294.22205209 -.00000125  00000-0  10000-3 0  9429
2 02649 000.8785 002.5878 0038032 071.3523 286.5019 01.08282455 89382
